{"state":"va","localities":{"51165":{"name":"Rockingham County General Registrar","elections_url":"http:\/\/www.RockinghamVoters.com","address":{"line1":"20 E. Gay Street","city":"Harrisonburg","state":"VA","zip":"22802"},"official":{"phone":"(540) 564-3055","fax":"(540) 564-3057"}},"51840":{"name":"Winchester City General Registrar","elections_url":"http:\/\/www.winchesterva.gov\/vote\/","address":{"line1":"107-A N East Lane","city":"Winchester ","state":"VA","zip":"22601"},"official":{"phone":"(540) 545-7910","fax":"(540) 545-7925"}},"51157":{"name":"Rappahannock County General Registrar","address":{"location_name":"Courthouse Complex","line1":"262a Gay Street","city":"Washington","state":"VA","zip":"22747"},"official":{"phone":"(540) 675-5380","fax":"(540) 675-5381"}},"51079":{"name":"Greene County General Registrar","elections_url":"http:\/\/www.gcva.us\/dpts\/vote\/default.htm","address":{"line1":"32 Stanard Street","city":"Stanardsville ","state":"VA","zip":"22973"},"official":{"phone":"(434) 985-5213","fax":"(434) 985-2369"}},"51103":{"name":"Lancaster County General Registrar","address":{"line1":"8694 Mary Ball Road","city":"Lancaster","state":"VA","zip":"22503"},"official":{"phone":"(804) 462-5277","fax":"(804) 462-5228"}},"51710":{"name":"Norfolk City General Registrar","elections_url":"http:\/\/www.norfolk.gov\/Elections\/","address":{"location_name":"City Hall","line2":"Room 808","city":"Norfolk","state":"VA","zip":"23501"},"official":{"phone":"(757) 664-4353","fax":"(757) 664-4685"}},"51530":{"name":"Buena Vista City General Registrar","elections_url":"http:\/\/www.bvcity.org\/registrar.htm","address":{"location_name":"Courthouse","line1":"2039 Sycamore Avenue","city":"Buena Vista ","state":"VA","zip":"24416"},"official":{"phone":"(540) 261-8605","fax":"(540) 261-8618"}},"51640":{"name":"Galax City General Registrar","address":{"city":"Galax ","state":"VA","zip":"24333"},"official":{"phone":"(276) 236-7509","fax":"(276) 236-2889"}},"51720":{"name":"Norton City General Registrar","elections_url":"http:\/\/www.nortonva.gov\/residents\/dept\/registrar\/faq.htm","address":{"city":"Norton","state":"VA","zip":"24273"},"official":{"phone":"(276) 679-1162","fax":"(276) 679-0754"}},"51035":{"name":"Carroll County General Registrar","elections_url":"http:\/\/www.carrollcountyva.org\/voterregistration\/","address":{"location_name":"Governmental Center","line1":"605-3 Pine Street","line2":"B110","city":"Hillsville","state":"VA","zip":"24343"},"official":{"phone":"(276) 730-3035","fax":"(276) 730-3040"}},"51081":{"name":"Greensville County General Registrar","elections_url":"http:\/\/www.greensvillecountyva.gov\/Local%20Government\/Registrar\/voting_registration_and_election.htm","address":{"city":"Emporia","state":"VA","zip":"23847"},"official":{"phone":"(434) 348-4228","fax":"(434) 348-4257"}},"51685":{"name":"Manassas Park City General Registrar","elections_url":"http:\/\/www.cityofmanassaspark.us\/Public_Documents\/ManassasParkVA_Registrar\/index","address":{"location_name":"City Hall","line1":"1 Park Center Ct","city":"Manassas Park ","state":"VA","zip":"20111"},"official":{"phone":"(703) 335-8806","fax":"(703) 335-9042"}},"51620":{"name":"Franklin City General Registrar","elections_url":"http:\/\/www.franklinva.com\/index.php?option=com_content&view=article&id=69&Itemid=91","address":{"line1":"100 S Main St","city":"Franklin ","state":"VA","zip":"23851"},"official":{"phone":"(757) 562-8545","fax":"(757) 562-8779"}},"51053":{"name":"Dinwiddie County General Registrar","elections_url":"http:\/\/www.dinwiddieva.us\/county-depts\/voter-reg\/","address":{"location_name":"The Pamplin Building","line1":"14016 Boydton Plank Road","city":"Dinwiddie","state":"VA","zip":"23841"},"official":{"phone":"(804) 469-4512","fax":"(804) 469-4544"}},"51051":{"name":"Dickenson County General Registrar","elections_url":"http:\/\/www.dickensoncountyvirginia.org\/html\/voter_registration.html","address":{"location_name":"Dmv Building","city":"Clintwood","state":"VA","zip":"24228"},"official":{"phone":"(276) 926-1620","fax":"(276) 926-8287"}},"51021":{"name":"Bland County General Registrar","elections_url":"http:\/\/www.bland.org\/government\/generalregistrar.html","address":{"city":"Bland","state":"VA","zip":"24315"},"official":{"phone":"(276) 688-4441","fax":"(276) 688-3552"}},"51031":{"name":"Campbell County General Registrar","elections_url":"http:\/\/www.co.campbell.va.us","address":{"location_name":"Historic Courthouse","city":"Rustburg","state":"VA","zip":"24588"},"official":{"phone":"(434) 332-9579","fax":"(434) 332-9689"}},"51033":{"name":"Caroline County General Registrar","elections_url":"http:\/\/www.visitcaroline.com\/registrar.html","address":{"line1":"109 County Street","city":"Bowling Green ","state":"VA","zip":"22427"},"official":{"phone":"(804) 633-9083","fax":"(804) 633-0362"}},"51097":{"name":"King & Queen County General Registrar","address":{"line1":"232 Allens Circle","city":"King & Queen C H ","state":"VA","zip":"23085"},"official":{"phone":"(804) 785-5980","fax":"(804) 785-5792"}},"51049":{"name":"Cumberland County General Registrar","elections_url":"http:\/\/www.cumberlandcounty.virginia.gov\/registrar\/index.html","address":{"line1":"1487 Anderson Hwy","city":"Cumberland","state":"VA","zip":"23040"},"official":{"phone":"(804) 492-4504","fax":"(804) 492-3571"}},"51135":{"name":"Nottoway County General Registrar","elections_url":"http:\/\/www.nottoway.org\/voter_registration.shtml","address":{"city":"Nottoway","state":"VA","zip":"23955"},"official":{"phone":"(434) 645-8148","fax":"(434) 645-1636"}},"51059":{"name":"Fairfax County General Registrar","elections_url":"http:\/\/www.fairfaxcounty.gov\/eb","address":{"city":"Fairfax","state":"VA","zip":"22038"},"official":{"phone":"(703) 222-0776"}},"51037":{"name":"Charlotte County General Registrar","elections_url":"http:\/\/www.charlotteva.com\/registrar.htm","address":{"city":"Charlotte Court Hse ","state":"VA","zip":"23923"},"official":{"phone":"(434) 542-5856","fax":"(434) 542-4168"}},"51690":{"name":"Martinsville City General Registrar","elections_url":"http:\/\/www.ci.martinsville.va.us\/Registrar\/default","address":{"city":"Martinsville","state":"VA","zip":"24114"},"official":{"phone":"(276) 403-5122","fax":"(276) 403-5258"}},"51520":{"name":"Bristol City General Registrar","elections_url":"http:\/\/www.bristolvavote.org\/","address":{"line1":"300 Lee Street","line2":"Suite 101","city":"Bristol","state":"VA","zip":"24201"},"official":{"phone":"(276) 645-7318","fax":"(276) 645-7331"}},"51580":{"name":"Covington City General Registrar","elections_url":"http:\/\/www.covington.va.us\/registrar.shtml","address":{"line1":"1011 A N Rockbridge Ave","city":"Covington","state":"VA","zip":"24426"},"official":{"phone":"(540) 965-6380","fax":"(540) 965-6362"}},"51127":{"name":"New Kent County General Registrar","elections_url":"http:\/\/www.co.new-kent.va.us\/registrar\/","address":{"line1":"12003 New Kent Hwy","city":"New Kent ","state":"VA","zip":"23124"},"official":{"phone":"(804) 966-9699","fax":"(804) 966-8536"}},"51113":{"name":"Madison County General Registrar","elections_url":"http:\/\/www.madisonco.virginia.gov\/index.php?option=com_content&view=category&layout=blog&id=79&Itemid=85","address":{"line1":"302 Thrift Road","city":"Madison","state":"VA","zip":"22727"},"official":{"phone":"(540) 948-6533","fax":"(540) 948-7825"}},"51083":{"name":"Halifax County General Registrar","elections_url":"http:\/\/www.halifaxcountyva.gov\/index.asp?Type=B_DIR&SEC=%7BA6420660-6AD4-4EA8-ABAF-B60E15AE339E%7D","address":{"city":"Halifax","state":"VA","zip":"24558"},"official":{"phone":"(434) 476-3322","fax":"(434) 476-1045"}},"51099":{"name":"King George County General Registrar","elections_url":"http:\/\/www.king-george.va.us","address":{"line1":"10459 Courthouse Dr","line2":"Suite 102","city":"King George ","state":"VA","zip":"22485"},"official":{"phone":"(540) 775-9186","fax":"(540) 775-4852"}},"51036":{"name":"Charles City County General Registrar","elections_url":"http:\/\/co.charles-city.va.us\/index.asp?Type=B_BASIC&SEC={DDE69E26-D9AC-43E3-8B83-1543EED7554F}","address":{"city":"Charles City ","state":"VA","zip":"23030"},"official":{"phone":"(804) 652-4606","fax":"(804) 829-6823"}},"51735":{"name":"Poquoson City General Registrar","elections_url":"http:\/\/www.ci.poquoson.va.us\/redesign\/voter\/index.htm","address":{"line1":"500 City Hall Ave.","line2":"Rm 139","city":"Poquoson","state":"VA","zip":"23662"},"official":{"phone":"(757) 868-3070","fax":"(757) 868-3104"}},"51011":{"name":"Appomattox County General Registrar","address":{"city":"Appomattox","state":"VA","zip":"24522"},"official":{"phone":"(434) 352-5302","fax":"(434) 352-4409"}},"51161":{"name":"Roanoke County General Registrar","elections_url":"http:\/\/www.roanokecountyva.gov","address":{"city":"Roanoke ","state":"VA","zip":"24018"},"official":{"phone":"(540) 772-7500","fax":"(540) 772-2115"}},"51590":{"name":"Danville City General Registrar","elections_url":"http:\/\/www.danville-va.gov","address":{"line1":"515 Main Street","city":"Danville ","state":"VA","zip":"24541"},"official":{"phone":"(434) 799-6560","fax":"(434) 797-8987"}},"51077":{"name":"Grayson County General Registrar","elections_url":"http:\/\/www.graysongovernment.com\/mountrogers.aspx","address":{"line1":"129 Davis Street","city":"Independence","state":"VA","zip":"24348"},"official":{"phone":"(276) 773-2842","fax":"(276) 773-2842"}},"51047":{"name":"Culpeper County General Registrar","elections_url":"http:\/\/web.culpepercounty.gov\/CountyGovernment\/Registrar.aspx","address":{"line1":"151 North Main Street Suite 301","city":"Culpeper ","state":"VA","zip":"22701"},"official":{"phone":"(540) 825-0652","fax":"(540) 825-8454"}},"51017":{"name":"Bath County General Registrar","address":{"city":"Warm Springs ","state":"VA","zip":"24484"},"official":{"phone":"(540) 839-7266","fax":"(540) 839-7277"}},"51015":{"name":"Augusta County General Registrar","elections_url":"http:\/\/www.co.augusta.va.us","address":{"location_name":"Augusta Co Gvnmnt Cntr","city":"Verona","state":"VA","zip":"24482"},"official":{"phone":"(540) 245-5656","fax":"(540) 245-5037"}},"51169":{"name":"Scott County General Registrar","address":{"line1":"104 Jones Street","city":"Gate City ","state":"VA","zip":"24251"},"official":{"phone":"(276) 386-3843","fax":"(276) 386-3741"}},"51075":{"name":"Goochland County General Registrar","elections_url":"http:\/\/www.co.goochland.va.us\/Departments\/DepartmentsGZ\/Registrar\/tabid\/58\/Default.aspx","address":{"line1":"1800 Sandy Hook Road","line2":"Po Box 1013","city":"Goochland ","state":"VA","zip":"23063"},"official":{"phone":"(804) 556-5803","fax":"(804) 556-6323"}},"51141":{"name":"Patrick County General Registrar","elections_url":"http:\/\/www.co.patrick.va.us\/department.cfm?ID=18&pg=52","address":{"city":"Stuart","state":"VA","zip":"24171"},"official":{"phone":"(276) 694-7206","fax":"(276) 694-5488"}},"51101":{"name":"King William County General Registrar","elections_url":"http:\/\/www.kingwilliamcounty.us\/vote.htm","address":{"line1":"180 Horse Landing Road","city":"King William ","state":"VA","zip":"23086"},"official":{"phone":"(804) 769-4952","fax":"(804) 769-4920"}},"51027":{"name":"Buchanan County General Registrar","address":{"line1":"1012 Walnut Street","line2":"Suite 303","city":"Grundy","state":"VA","zip":"24614"},"official":{"phone":"(276) 935-6534","fax":"(276) 935-4320"}},"51750":{"name":"Radford City General Registrar","elections_url":"http:\/\/www.radford.va.us\/registrar\/","address":{"line1":"519 2nd Street","city":"Radford ","state":"VA","zip":"24141"},"official":{"phone":"(540) 731-3639","fax":"(540) 633-0152"}},"51061":{"name":"Fauquier County General Registrar","elections_url":"http:\/\/www.fauquiercounty.gov\/government\/departmen","address":{"line1":"32 Waterloo Street","line2":"Suite 207","city":"Warrenton","state":"VA","zip":"20186"},"official":{"phone":"(540) 347-6972","fax":"(540) 349-4397"}},"51089":{"name":"Henry County General Registrar","elections_url":"http:\/\/www.henrycountyva.gov\/Voter-Registration.html","address":{"line1":"3300 Kings Mountain Rd","city":"Collinsville","state":"VA","zip":"24078"},"official":{"phone":"(276) 638-5108","fax":"(276) 638-8278"}},"51085":{"name":"Hanover County General Registrar","elections_url":"http:\/\/hanovervoter.com","address":{"city":"Hanover ","state":"VA","zip":"23069"},"official":{"phone":"(804) 365-6080","fax":"(804) 365-6078"}},"51187":{"name":"Warren County General Registrar","elections_url":"http:\/\/www.warrencountyva.net","address":{"line1":"220 North Commerce Ave","line2":"Suite 700","city":"Front Royal ","state":"VA","zip":"22630"},"official":{"phone":"(540) 635-4327","fax":"(540) 635-5456"}},"51515":{"name":"Bedford City General Registrar","elections_url":"http:\/\/www.bedfordva.gov","address":{"line1":"215 East Main Street","city":"Bedford","state":"VA","zip":"24523"},"official":{"phone":"(540) 587-6007","fax":"(540) 587-6143"}},"51800":{"name":"Suffolk City General Registrar","elections_url":"http:\/\/www.suffolk.va.us\/registrar\/","address":{"line1":"425 W Washington St","line2":"Suite 4","city":"Suffolk","state":"VA","zip":"23439"},"official":{"phone":"(757) 514-7750","fax":"(757) 934-0719"}},"51700":{"name":"Newport News City General Registrar","elections_url":"http:\/\/www.nngov.com\/voter-registrar","address":{"location_name":"City Hall","line1":"2400 Washington Ave","city":"Newport News ","state":"VA","zip":"23607"},"official":{"phone":"(757) 926-8683","fax":"(757) 926-3653"}},"51610":{"name":"Falls Church City General Registrar","elections_url":"http:\/\/www.fallschurchva.gov\/Content\/Government\/Vo","address":{"location_name":"City Hall","line1":"300 Park Avenue","city":"Falls Church ","state":"VA","zip":"22046"},"official":{"phone":"(703) 248-5085","fax":"(703) 248-5204"}},"51195":{"name":"Wise County General Registrar","elections_url":"http:\/\/www.wisecounty.org\/registrar\/registrar.html","address":{"city":"Wise","state":"VA","zip":"24293"},"official":{"phone":"(276) 328-8331","fax":"(276) 328-7111"}},"51063":{"name":"Floyd County General Registrar","elections_url":"http:\/\/www.floydcova.org\/government\/voter_registrar.shtml","address":{"location_name":"Courthouse","line1":"100 E Main St","line2":"Rm 302","city":"Floyd","state":"VA","zip":"24091"},"official":{"phone":"(540) 745-9350","fax":"(540) 745-9390"}},"51145":{"name":"Powhatan County General Registrar","elections_url":"http:\/\/www.powhatanva.gov","address":{"line1":"3834 Old Buckingham Road","line2":"Suite G","city":"Powhatan","state":"VA","zip":"23139"},"official":{"phone":"(804) 598-5604","fax":"(804) 598-7835"}},"51133":{"name":"Northumberland County General Registrar","address":{"line1":"72 Monument Place","city":"Heathsville","state":"VA","zip":"22473"},"official":{"phone":"(804) 580-4655","fax":"(804) 580-2075"}},"51153":{"name":"Prince William County General Registrar","elections_url":"http:\/\/www.pwcgov.org\/vote","address":{"line1":"9250 Lee Avenue","line2":"Ste. 1","city":"Manassas","state":"VA","zip":"20110"},"official":{"phone":"(703) 792-6470","fax":"(703) 792-6461"}},"51069":{"name":"Frederick County General Registrar","elections_url":"http:\/\/www.co.frederick.va.us\/voter\/fcvote2.h","address":{"line1":"107 N. Kent Street","line2":"Suite 102","city":"Winchester","state":"VA","zip":"22601"},"official":{"phone":"(540) 665-5660","fax":"(540) 665-8976"}},"51167":{"name":"Russell County General Registrar","address":{"location_name":"Courthouse Annex","line1":"96 Russell St","city":"Lebanon","state":"VA","zip":"24266"},"official":{"phone":"(276) 889-8006","fax":"(276) 889-8022"}},"51600":{"name":"Fairfax City General Registrar","elections_url":"http:\/\/www.fairfaxva.gov\/Registrar\/GeneralRegistra","address":{"line1":"10455 Armstrong Street","city":"Fairfax ","state":"VA","zip":"22030"},"official":{"phone":"(703) 385-7890","fax":"(703) 591-8364"}},"51510":{"name":"Alexandria City General Registrar","elections_url":"http:\/\/www.alexandriavoter.org","address":{"line1":"132 North Royal Street","line2":"Suite 100","city":"Alexandria","state":"VA","zip":"22314"},"official":{"phone":"(703) 838-4050","fax":"(703) 838-6449"}},"51830":{"name":"Williamsburg City General Registrar","elections_url":"http:\/\/www.ci.williamsburg.va.us\/dept\/votreg\/mainp","address":{"line1":"412 North Boundary Street","city":"Williamsburg","state":"VA","zip":"23187"},"official":{"phone":"(757) 220-6157","fax":"(757) 220-6158"}},"51680":{"name":"Lynchburg City General Registrar","elections_url":"http:\/\/www.lynchburgva.gov\/home\/index.asp?page=420","address":{"city":"Lynchburg ","state":"VA","zip":"24506"},"official":{"phone":"(434) 847-1609","fax":"(434) 947-2798"}},"51105":{"name":"Lee County General Registrar","address":{"location_name":"Montgomery Law Office Bldg","city":"Jonesville","state":"VA","zip":"24263"},"official":{"phone":"(276) 346-7780","fax":"(276) 346-7781"}},"51173":{"name":"Smyth County General Registrar","elections_url":"http:\/\/www.smythcounty.org\/Voter_Registrar\/Voter_Registrar.htm","address":{"line1":"121 Bagley Circle","line2":"Ste 108","city":"Marion","state":"VA","zip":"24354"},"official":{"phone":"(276) 783-7000","fax":"(276) 783-9055"}},"51790":{"name":"Staunton City General Registrar","elections_url":"http:\/\/www.staunton.va.us\/default.asp?pageID=0DFD5","address":{"location_name":"City Hall","line2":"1st Floor","city":"Staunton","state":"VA","zip":"24401"},"official":{"phone":"(540) 332-3840","fax":"(540) 332-3834"}},"51185":{"name":"Tazewell County General Registrar","address":{"city":"Tazewell ","state":"VA","zip":"24651"},"official":{"phone":"(276) 988-1305","fax":"(276) 988-2530"}},"51043":{"name":"Clarke County General Registrar","elections_url":"http:\/\/www.clarkecounty.gov","address":{"line1":"101 Chalmers Ct","city":"Berryville ","state":"VA","zip":"22611"},"official":{"phone":"(540) 955-5168","fax":"(540) 955-5169"}},"51183":{"name":"Sussex County General Registrar","elections_url":"http:\/\/sussexcounty.govoffice.com\/index.asp?Type=B_BASIC&SEC=%7BAAE97BBA-77F0-48E9-BAAE-726AE85C4A67%7D","address":{"city":"Sussex","state":"VA","zip":"23884"},"official":{"phone":"(434) 246-1047","fax":"(434) 246-4315"}},"51023":{"name":"Botetourt County General Registrar","elections_url":"http:\/\/www.co.botetourt.va.us\/government\/voter_inf","address":{"location_name":"Old Po Bldg","line1":"2 E Main St","city":"Fincastle","state":"VA","zip":"24090"},"official":{"phone":"(540) 473-8235","fax":"(540) 473-8330"}},"51073":{"name":"Gloucester County General Registrar","elections_url":"http:\/\/www.gloucesterva.info\/registrar\/homepage.ht","address":{"city":"Gloucester","state":"VA","zip":"23061"},"official":{"phone":"(804) 693-3659","fax":"(804) 693-3831"}},"51650":{"name":"Hampton City General Registrar","elections_url":"http:\/\/www.hampton.gov\/voter","address":{"line1":"1919 Commerce Dr","line2":"Suite 280","city":"Hampton","state":"VA","zip":"23666"},"official":{"phone":"(757) 727-6218","fax":"(757) 727-6084"}},"51155":{"name":"Pulaski County General Registrar","elections_url":"http:\/\/www.pulaskicounty.org\/","address":{"line1":"52 W. MAIN STREET","line2":"SUITE 300","city":"Pulaski ","state":"VA","zip":"24301"},"official":{"phone":"(540) 980-2111","fax":"(540) 994-5883"}},"51730":{"name":"Petersburg City General Registrar","elections_url":"http:\/\/www.petersburg-va.org\/registrar\/index.asp","address":{"line1":"142 N. Union Street","city":"Petersburg","state":"VA","zip":"23804"},"official":{"phone":"(804) 733-2380","fax":"(804) 863-2760"}},"51770":{"name":"Roanoke City General Registrar","elections_url":"http:\/\/www.roanokeva.gov\/85256a8d0062af37\/vwContentByKey\/N2525H8U899SPEAEN","address":{"location_name":"Municipal North","line1":"215 Church Ave.","line2":"Rm. 109","city":"Roanoke","state":"VA","zip":"24011"},"official":{"phone":"(540) 853-2281","fax":"(540) 853-1025"}},"51111":{"name":"Lunenburg County General Registrar","elections_url":"http:\/\/lunenburgva.org\/gov_registrar.html","address":{"line1":"160 Courthouse Square","city":"Lunenburg","state":"VA","zip":"23952"},"official":{"phone":"(434) 696-3071","fax":"(434) 696-3952"}},"51001":{"name":"Accomack County General Registrar","address":{"line1":"23312 Courthouse Ave","city":"Accomac ","state":"VA","zip":"23301"},"official":{"phone":"(757) 787-2935","fax":"(757) 824-0525"}},"51119":{"name":"Middlesex County General Registrar","elections_url":"http:\/\/www.co.middlesex.va.us\/registrar.htm","address":{"line1":"865 General Puller Highway","city":"Saluda","state":"VA","zip":"23149"},"official":{"phone":"(804) 758-4420","fax":"(804) 758-3950"}},"51595":{"name":"Emporia City General Registrar","address":{"city":"Emporia","state":"VA","zip":"23847"},"official":{"phone":"(434) 634-9533","fax":"(434) 634-0003"}},"51121":{"name":"Montgomery County General Registrar","elections_url":"http:\/\/www.montva.com\/departments\/vote\/","address":{"line1":"755 Roanoke Street","city":"Christiansburg","state":"VA","zip":"24073"},"official":{"phone":"(540) 382-5741","fax":"(540) 381-6811"}},"51740":{"name":"Portsmouth City General Registrar","elections_url":"https:\/\/www.portsmouthva.gov\/registrar","address":{"line1":"801 Crawford Street","line2":"First Floor","city":"Portsmouth","state":"VA","zip":"23704"},"official":{"phone":"(757) 393-8644","fax":"(757) 393-5415"}},"51810":{"name":"Virginia Beach City General Registrar","elections_url":"http:\/\/www.vbgov.com\/vgn.aspx?dept_list=aa98fd67f3ad9010VgnVCM100000870b640aRCRD","address":{"city":"Virginia Beach ","state":"VA","zip":"23456"},"official":{"phone":"(757) 385-8683","fax":"(757) 385-5632"}},"51683":{"name":"Manassas City General Registrar","elections_url":"http:\/\/www.manassascity.org","address":{"line1":"9025 Center St","city":"Manassas","state":"VA","zip":"20110"},"official":{"phone":"(703) 257-8230","fax":"(703) 257-0080"}},"51137":{"name":"Orange County General Registrar","elections_url":"http:\/\/orangecountyva.gov\/voter\/index.asp","address":{"line1":"146 Madison Rd","line2":"Suite 204","city":"Orange","state":"VA","zip":"22960"},"official":{"phone":"(540) 672-5262","fax":"(540) 672-4872"}},"51660":{"name":"Harrisonburg City General Registrar","elections_url":"http:\/\/www.harrisonburgva.gov\/index.php?id=637","address":{"city":"Harrisonburg","state":"VA","zip":"22801"},"official":{"phone":"(540) 432-7707","fax":"(540) 432-7784"}},"51005":{"name":"Alleghany County General Registrar","address":{"line1":"110 Rosedale Avenue","line2":"Suite D","city":"Covington","state":"VA","zip":"24426"},"official":{"phone":"(540) 965-1690","fax":"(540) 965-1692"}},"51775":{"name":"Salem City General Registrar","elections_url":"https:\/\/www.ci.salem.va.us","address":{"city":"Salem","state":"VA","zip":"24153"},"official":{"phone":"(540) 375-3034","fax":"(540) 375-4052"}},"51107":{"name":"Loudoun County General Registrar","elections_url":"http:\/\/www.loudoun.gov\/government\/voting.htm","address":{"line1":"801 Sycolin Road SE","line2":"Suite 102","city":"Leesburg","state":"VA","zip":"20175"},"official":{"phone":"(703) 777-0380","fax":"(703) 777-0622"}},"51149":{"name":"Prince George County General Registrar","elections_url":"http:\/\/www.princegeorgeva.org\/Index.aspx?page=51","address":{"line1":"6602 Courts Drive","line2":"Ste 243","city":"Prince George ","state":"VA","zip":"23875"},"official":{"phone":"(804) 722-8748","fax":"(804) 733-2793"}},"51159":{"name":"Richmond County General Registrar","elections_url":"http:\/\/www.co.richmond.va.us\/govoffices.htm#Registrar's_Office","address":{"location_name":"County Office Building","city":"Warsaw","state":"VA","zip":"22572"},"official":{"phone":"(804) 333-4772","fax":"(804) 333-3408"}},"51177":{"name":"Spotsylvania County General Registrar","elections_url":"http:\/\/www.spotsylvania.va.us\/","address":{"line1":"9106 A Courthouse Road","city":"Spotsylvania ","state":"VA","zip":"22553"},"official":{"phone":"(540) 507-7380","fax":"(540) 582-2604"}},"51181":{"name":"Surry County General Registrar","elections_url":"http:\/\/www.surrycounty.govoffice2.com\/index.asp?Type=B_BASIC&SEC=%7BB20BF6F9-D0F1-451F-8BD1-76977F356C87%7D","address":{"location_name":"Surry Government Ctr","line1":"45 School St","city":"Surry","state":"VA","zip":"23883"},"official":{"phone":"(757) 294-5213","fax":"(757) 294-5285"}},"51095":{"name":"James City County General Registrar","elections_url":"http:\/\/www.james-city.va.us\/voter\/index.html","address":{"city":"Williamsburg","state":"VA","zip":"23187"},"official":{"phone":"(757) 253-6868","fax":"(757) 253-6875"}},"51091":{"name":"Highland County General Registrar","address":{"line1":"49 Spruce St.","line2":"Suite 1","city":"Monterey ","state":"VA","zip":"24465"},"official":{"phone":"(540) 468-2013","fax":"(540) 468-2012"}},"51193":{"name":"Westmoreland County General Registrar","elections_url":"http:\/\/www.westmoreland-county.org\/index.php?p=living&c=voting","address":{"city":"Montross","state":"VA","zip":"22520"},"official":{"phone":"(804) 493-8898","fax":"(804) 493-0158"}},"51540":{"name":"Charlottesville City General Registrar","elections_url":"https:\/\/www.charlottesville.org\/vote","address":{"location_name":"City Hall Annex","city":"Charlottesville","state":"VA","zip":"22902"},"official":{"phone":"(434) 970-3250","fax":"(434) 970-3249"}},"51067":{"name":"Franklin County General Registrar","elections_url":"http:\/\/www.franklincountyva.org\/vote\/","address":{"line1":"70 E Court St","line2":"Ste 302","city":"Rocky Mount ","state":"VA","zip":"24151"},"official":{"phone":"(540) 483-3025","fax":"(540) 483-6619"}},"51820":{"name":"Waynesboro City General Registrar","elections_url":"http:\/\/www.waynesboro.va.us\/boe.php","address":{"line1":"250 S Wayne Avenue","line2":"Suite 205","city":"Waynesboro","state":"VA","zip":"22980"},"official":{"phone":"(540) 942-6620","fax":"(540) 942-6501"}},"51007":{"name":"Amelia County General Registrar","address":{"city":"Amelia Court House ","state":"VA","zip":"23002"},"official":{"phone":"(804) 561-3460","fax":"(804) 561-3490"}},"51057":{"name":"Essex County General Registrar","address":{"city":"Tappahannock ","state":"VA","zip":"22560"},"official":{"phone":"(804) 443-4611","fax":"(804) 443-4498"}},"51630":{"name":"Fredericksburg City General Registrar","elections_url":"http:\/\/www.fredericksburgva.gov","address":{"city":"Fredericksburg","state":"VA","zip":"22404"},"official":{"phone":"(540) 372-1030","fax":"(540) 373-8381"}},"51013":{"name":"Arlington County General Registrar","elections_url":"http:\/\/www.arlingtonva.us\/vote","address":{"line1":"2100 Clarendon Blvd","line2":"Ste 320","city":"Arlington","state":"VA","zip":"22201"},"official":{"phone":"(703) 228-3456","fax":"(703) 228-3659"}},"51115":{"name":"Mathews County General Registrar","elections_url":"http:\/\/www.co.mathews.va.us\/index.aspx?page=48","address":{"city":"Mathews","state":"VA","zip":"23109"},"official":{"phone":"(804) 725-3200","fax":"(804) 725-5786"}},"51171":{"name":"Shenandoah County General Registrar","elections_url":"https:\/\/www.shenandoahcountyva.us\/voter","address":{"line1":"600 N Main Street","line2":"Ste 103","city":"Woodstock","state":"VA","zip":"22664"},"official":{"phone":"(540) 459-6195","fax":"(540) 459-6196"}},"51071":{"name":"Giles County General Registrar","elections_url":"http:\/\/gilescounty.org\/voter.html","address":{"line1":"120 N Main Street","line2":"Suite 3","city":"Pearisburg","state":"VA","zip":"24134"},"official":{"phone":"(540) 921-2802","fax":"(540) 921-3176"}},"51570":{"name":"Colonial Heights City General Registrar","elections_url":"http:\/\/www.colonial-heights.com\/Registrar.htm","address":{"city":"Colonial Heights ","state":"VA","zip":"23834"},"official":{"phone":"(804) 520-9277","fax":"(804) 520-9209"}},"51025":{"name":"Brunswick County General Registrar","elections_url":"http:\/\/www.brunswickco.com\/html\/registrar.html","address":{"location_name":"Government Building","line1":"100 Tobacco St","line2":"Rm 103","city":"Lawrenceville","state":"VA","zip":"23868"},"official":{"phone":"(434) 848-4414","fax":"(434) 848-9276"}},"51029":{"name":"Buckingham County General Registrar","elections_url":"http:\/\/www.buckinghamcountyva.org\/Registrar.html","address":{"city":"Buckingham","state":"VA","zip":"23921"},"official":{"phone":"(434) 969-4304","fax":"(434) 969-2060"}},"51143":{"name":"Pittsylvania County General Registrar","address":{"line1":"110 Old Chatham Elem School Ln","city":"Chatham","state":"VA","zip":"24531"},"official":{"phone":"(434) 432-7971","fax":"(434) 432-7973"}},"51197":{"name":"Wythe County General Registrar","address":{"location_name":"Law Enforcement & Judicial Center","line1":"245 S 4th Street","line2":"Suite 101","city":"Wytheville","state":"VA","zip":"24382"},"official":{"phone":"(276) 223-6038","fax":"(276) 223-6039"}},"51003":{"name":"Albemarle County General Registrar","elections_url":"https:\/\/www.albemarle.org\/registrar","address":{"line1":"536 Pantops Center","line2":"Pmb 404","city":"Charlottesville","state":"VA","zip":"22911"},"official":{"phone":"(434) 972-4173","fax":"(434) 972-4178"}},"51139":{"name":"Page County General Registrar","elections_url":"http:\/\/pagecounty.virginia.gov\/index.php?option=content&task=view&id=243","address":{"line1":"117 South Court Street","city":"Luray","state":"VA","zip":"22835"},"official":{"phone":"(540) 743-3986","fax":"(540) 743-1988"}},"51175":{"name":"Southampton County General Registrar","elections_url":"http:\/\/www.southamptoncounty.org\/voter.asp","address":{"city":"Courtland","state":"VA","zip":"23837"},"official":{"phone":"(757) 653-9280","fax":"(757) 653-9401"}},"51131":{"name":"Northampton County General Registrar","elections_url":"http:\/\/www.co.northampton.va.us\/gov\/registrar\/","address":{"line1":"16403 Courthouse Rd","city":"Eastville","state":"VA","zip":"23347"},"official":{"phone":"(757) 678-0480","fax":"(757) 678-0453"}},"51045":{"name":"Craig County General Registrar","address":{"line1":"155 Main St","city":"New Castle ","state":"VA","zip":"24127"},"official":{"phone":"(540) 864-6190","fax":"(540) 864-6454"}},"51678":{"name":"Lexington City General Registrar","elections_url":"http:\/\/www.ci.lexington.va.us\/d-registrar.htm","address":{"location_name":"City Hall","line2":"Room 102","city":"Lexington ","state":"VA","zip":"24450"},"official":{"phone":"(540) 462-3706","fax":"(540) 463-5310"}},"51191":{"name":"Washington County General Registrar","elections_url":"http:\/\/www.washcova.com\/government\/other-offices\/general-voter-registrar","address":{"line1":"25552 Lee Highway","line2":"Suite 1","city":"Abingdon","state":"VA","zip":"24211"},"official":{"phone":"(276) 676-6227","fax":"(276) 676-6200"}},"51019":{"name":"Bedford County General Registrar","elections_url":"http:\/\/www.co.bedford.va.us\/Res\/vote\/index.htm","address":{"line1":"122 E Main St","line2":"Ste 204","city":"Bedford","state":"VA","zip":"24523"},"official":{"phone":"(540) 586-7649","fax":"(540) 586-8358"}},"51550":{"name":"Chesapeake City General Registrar","elections_url":"http:\/\/www.cityofchesapeake.net\/services\/depart\/vo","address":{"city":"Chesapeake","state":"VA","zip":"23328"},"official":{"phone":"(757) 277-9797","fax":"(757) 547-5402"}},"51117":{"name":"Mecklenburg County General Registrar","address":{"city":"Boydton","state":"VA","zip":"23917"},"official":{"phone":"(434) 738-6191","fax":"(434) 738-6104"}},"51109":{"name":"Louisa County General Registrar","address":{"city":"Louisa","state":"VA","zip":"23093"},"official":{"phone":"(540) 967-3427","fax":"(540) 967-3492"}},"51093":{"name":"Isle Of Wight County General Registrar","elections_url":"http:\/\/www.co.isle-of-wight.va.us\/index.php?option=com_content&task=view&id=667&Itemid=8410:52 AM 10\/15\/2009","address":{"line1":"17106 Monument Circle","city":"Isle Of Wight ","state":"VA","zip":"23397"},"official":{"phone":"(757) 365-6230","fax":"(757) 357-5699"}},"51125":{"name":"Nelson County General Registrar","elections_url":"http:\/\/nelsoncounty.com\/agencies\/registrar\/","address":{"location_name":"Health Dept Bldg","line2":"Suite 1f","city":"Lovingston ","state":"VA","zip":"22949"},"official":{"phone":"(434) 263-4068","fax":"(434) 263-8601"}},"51041":{"name":"Chesterfield County General Registrar","elections_url":"http:\/\/www.chesterfield.gov\/registrar","address":{"city":"Chesterfield","state":"VA","zip":"23832"},"official":{"phone":"(804) 748-1471","fax":"(804) 751-0822"}},"51199":{"name":"York County General Registrar","elections_url":"http:\/\/www.yorkcounty.gov\/voting","address":{"location_name":"County Administration Building","line1":"224 Ballard St.","city":"Yorktown","state":"VA","zip":"23690"},"official":{"phone":"(757) 890-3440","fax":"(757) 890-3449"}},"51009":{"name":"Amherst County General Registrar","elections_url":"http:\/\/www.countyofamherst.com\/department\/?fDD=13-0","address":{"city":"Amherst ","state":"VA","zip":"24521"},"official":{"phone":"(434) 946-9315","fax":"(434) 946-9345"}},"51760":{"name":"Richmond City General Registrar","elections_url":"http:\/\/www.richmondgov.com\/departments\/registrar\/","address":{"location_name":"City Hall","line1":"900 East Broad Street","line2":"Room 105","city":"Richmond","state":"VA","zip":"23261"},"official":{"phone":"(804) 646-5950","fax":"(804) 646-7848"}},"51179":{"name":"Stafford County General Registrar","elections_url":"http:\/\/CO.STAFFORD.VA.US\/REGISTRAR","address":{"location_name":"Stafford County Admin Ctr","city":"Stafford","state":"VA","zip":"22555"},"official":{"phone":"(540) 658-4000","fax":"(540) 658-4003"}},"51670":{"name":"Hopewell City General Registrar","elections_url":"http:\/\/www.hopewellva.gov\/data\/publish\/voter_registration.shtml","address":{"line1":"309 N 2nd Ave","city":"Hopewell ","state":"VA","zip":"23860"},"official":{"phone":"(804) 541-2232","fax":"(804) 452-5828"}},"51087":{"name":"Henrico County General Registrar","elections_url":"http:\/\/www.co.henrico.va.us\/registrar\/","address":{"city":"Henrico","state":"VA","zip":"23273"},"official":{"phone":"(804) 501-4347","fax":"(804) 501-5081"}},"51147":{"name":"Prince Edward County General Registrar","elections_url":"http:\/\/www.co.prince-edward.va.us\/FOLDERS%20WEB_DEPTS\/VOTER%20REGISTRAR\/voter_registrar_index.html","address":{"city":"Farmville","state":"VA","zip":"23901"},"official":{"phone":"(434) 392-4767","fax":"(434) 392-3889"}},"51163":{"name":"Rockbridge County General Registrar","elections_url":"http:\/\/www.co.rockbridge.va.us","address":{"line1":"150 South Main Street","city":"Lexington","state":"VA","zip":"24450"},"official":{"phone":"(540) 463-7203","fax":"(540) 463-1078"}},"51065":{"name":"Fluvanna County General Registrar","elections_url":"http:\/\/www.co.fluvanna.va.us\/registrar.htm","address":{"line1":"196 Main St.","city":"Palmyra","state":"VA","zip":"22963"},"official":{"phone":"(434) 589-3593","fax":"(434) 589-6383"}}},"cities":{},"counties":{}}